HAWK-9C                 
1 59448U 24066G   26067.56477702  .00003036  00000+0  26713-3 0  9990
2 59448  45.5963  76.3952 0003436 229.7565 130.3016 14.98771048104736
STARLINK-34051          
1 64022U 25102A   26068.49924251 -.00000203  00000+0 -92263-5 0  9995
2 64022  70.0013 114.9428 0003510 262.1194  97.9567 14.98336627 45922
