[{"OBJECT_NAME":"HAWK-9C","OBJECT_ID":"2024-066G","EPOCH":"2026-03-08T13:33:16.734528","MEAN_MOTION":14.98771048,"ECCENTRICITY":0.00034369,"INCLINATION":45.5963,"RA_OF_ASC_NODE":76.3952,"ARG_OF_PERICENTER":229.7565,"MEAN_ANOMALY":130.3016,"EPHEMERIS_TYPE":0,"CLASSIFICATION_TYPE":"U","NORAD_CAT_ID":59448,"ELEMENT_SET_NO":999,"REV_AT_EPOCH":10473,"BSTAR":0.00026713286,"MEAN_MOTION_DOT":3.036e-5,"MEAN_MOTION_DDOT":0},{"OBJECT_NAME":"STARLINK-34051","OBJECT_ID":"2025-102A","EPOCH":"2026-03-09T11:58:54.552864","MEAN_MOTION":14.98336627,"ECCENTRICITY":0.00035108,"INCLINATION":70.0013,"RA_OF_ASC_NODE":114.9428,"ARG_OF_PERICENTER":262.1194,"MEAN_ANOMALY":97.9567,"EPHEMERIS_TYPE":0,"CLASSIFICATION_TYPE":"U","NORAD_CAT_ID":64022,"ELEMENT_SET_NO":999,"REV_AT_EPOCH":4592,"BSTAR":-9.226319e-6,"MEAN_MOTION_DOT":-2.03e-6,"MEAN_MOTION_DDOT":0}]
